SatCatId,ObjectName,LaunchYear,OrbitalPeriod,LaunchMass,StatusCode,Inclination,Status,UcsData,OrbitClassEstimated,LaunchSiteCountry,Owner,UseType,Purpose,LaunchVehicleClass,TLE1,TLE2,MeanMotion,Eccentricity,OrbitClass
45751,STARLINK-1464,2020,95.59,227.0,+,53.05,Active,1,LEO,USA,USA,Commercial,Communications,Falcon,1 45751U 20038X   23266.75946679  .00004874  00000+0  34575-3 0  9996,2 45751  53.0541 287.5874 0001481 109.7608 250.3541 15.06412086182259,15.06412086,0.0001481,LEO
45753,STARLINK-1476,2020,95.59,227.0,+,53.05,Active,1,LEO,USA,USA,Commercial,Communications,Falcon,1 45753U 20038Z   23266.77054181  .00028055  00000+0  18947-2 0  9999,2 45753  53.0545 287.5368 0001653  88.2235 271.8943 15.06402638182257,15.06402638,0.0001653,LEO
45754,STARLINK-1477,2020,95.59,227.0,+,53.06,Active,1,LEO,USA,USA,Commercial,Communications,Falcon,1 45754U 20038AA  23266.77421043  .00002668  00000+0  19788-3 0  9992,2 45754  53.0553 287.5217 0001488  94.6477 265.4682 15.06408917182104,15.06408917,0.0001488,LEO
45755,STARLINK-1478,2020,95.59,227.0,+,53.05,Active,1,LEO,USA,USA,Commercial,Communications,Falcon,1 45755U 20038AB  23266.32822649  .00004011  00000+0  28802-3 0  9992,2 45755  53.0535 289.5183 0001616  94.2640 265.8534 15.06396083181064,15.06396083,0.0001616,LEO
45756,STARLINK-1484,2020,95.59,227.0,+,53.05,Active,1,LEO,USA,USA,Commercial,Communications,Falcon,1 45756U 20038AC  23266.78802500  .00001647  00000+0  12948-3 0  9993,2 45756  53.0531 287.4469 0001407  96.5755 263.5395 15.06381025182257,15.06381025,0.0001407,LEO
45757,STARLINK-1486,2020,94.72,227.0,P,53.05,Active,1,LEO,USA,USA,Commercial,Communications,Falcon,1 45757U 20038AD  23266.40797705  .00009609  00000+0  45098-3 0  9991,2 45757  53.0512 274.5163 0002110  76.2946 283.8284 15.20290772181282,15.20290772,0.000211,LEO
45758,STARLINK-1487,2020,94.66,227.0,P,53.06,Active,1,LEO,USA,USA,Commercial,Communications,Falcon,1 45758U 20038AE  23266.31733471  .00010796  00000+0  49021-3 0  9991,2 45758  53.0618 273.3902 0002844 104.3666 255.7645 15.21304397181294,15.21304397,0.0002844,LEO
45759,STARLINK-1493,2020,95.59,227.0,+,53.06,Active,1,LEO,USA,USA,Commercial,Communications,Falcon,1 45759U 20038AF  23266.78158806  .00003266  00000+0  23800-3 0  9997,2 45759  53.0563 287.4848 0001478  88.4848 271.6311 15.06405183182066,15.06405183,0.0001478,LEO
45760,STARLINK-1494,2020,95.59,227.0,+,53.05,Active,1,LEO,USA,USA,Commercial,Communications,Falcon,1 45760U 20038AG  23266.38720348  .00003510  00000+0  25443-3 0  9998,2 45760  53.0548 289.2574 0001628  85.7031 274.4144 15.06399452181085,15.06399452,0.0001628,LEO
45762,STARLINK-1499,2020,94.55,227.0,P,53.02,Active,1,LEO,USA,USA,Commercial,Communications,Falcon,1 45762U 20038AJ  23266.36151230  .00011209  00000+0  48354-3 0  9996,2 45762  53.0182 258.6079 0002186  44.1274 315.9896 15.23021305181521,15.23021305,0.0002186,LEO
45764,STARLINK-1502,2020,95.59,227.0,+,53.05,Active,1,LEO,USA,USA,Commercial,Communications,Falcon,1 45764U 20038AL  23266.48303059  .00007199  00000+0  50163-3 0  9993,2 45764  53.0539 288.8278 0001610  91.8189 268.2984 15.06402689182023,15.06402689,0.000161,LEO
45766,STARLINK-1509,2020,94.2,227.0,P,53.05,Active,1,LEO,USA,USA,Commercial,Communications,Falcon,1 45766U 20038AN  23266.27340779  .00026588  00000+0  95025-3 0  9991,2 45766  53.0482 265.1739 0003307  63.8544 296.2795 15.28661168181406,15.28661168,0.0003307,LEO
45767,STARLINK-1511,2020,95.59,227.0,+,53.05,Active,1,LEO,USA,USA,Commercial,Communications,Falcon,1 45767U 20038AP  23266.33191545  .00004474  00000+0  31912-3 0  9999,2 45767  53.0548 289.5045 0001457  90.7090 269.4065 15.06395842181062,15.06395842,0.0001457,LEO
45768,STARLINK-1521,2020,95.59,227.0,+,53.05,Active,1,LEO,USA,USA,Commercial,Communications,Falcon,1 45768U 20038AQ  23266.37982391  .00004124  00000+0  29552-3 0  9990,2 45768  53.0539 289.2908 0001408  97.5303 262.5846 15.06404617181080,15.06404617,0.0001408,LEO
45769,STARLINK-1459,2020,95.59,227.0,+,53.05,Active,1,LEO,USA,USA,Commercial,Communications,Falcon,1 45769U 20038AR  23266.40652652  .00004926  00000+0  34930-3 0  9995,2 45769  53.0538 309.1986 0001488  97.0079 263.1079 15.06406643180806,15.06406643,0.0001488,LEO
45770,STARLINK-1462,2020,95.59,227.0,+,53.05,Active,1,LEO,USA,USA,Commercial,Communications,Falcon,1 45770U 20038AS  23266.73825092  .00004439  00000+0  31665-3 0  9994,2 45770  53.0544 267.6780 0001457  86.1499 273.9656 15.06404627182527,15.06404627,0.0001457,LEO
45771,STARLINK-1463,2020,95.59,227.0,+,53.05,Active,1,LEO,USA,USA,Commercial,Communications,Falcon,1 45771U 20038AT  23266.33375329  .00008995  00000+0  62176-3 0  9996,2 45771  53.0537 269.4955 0001460  94.4010 265.7146 15.06412345182461,15.06412345,0.000146,LEO
45772,STARLINK-1470,2020,95.59,227.0,+,53.05,Active,1,LEO,USA,USA,Commercial,Communications,Falcon,1 45772U 20038AU  23266.38904021  .00009409  00000+0  64974-3 0  9998,2 45772  53.0542 269.2465 0001307 101.7371 258.3765 15.06399703181369,15.06399703,0.0001307,LEO
45773,STARLINK-1482,2020,95.59,227.0,+,53.05,Active,1,LEO,USA,USA,Commercial,Communications,Falcon,1 45773U 20038AV  23266.31531809  .00008112  00000+0  56277-3 0  9999,2 45773  53.0538 269.5803 0001468  89.9165 270.1992 15.06406942181357,15.06406942,0.0001468,LEO
45774,STARLINK-1485,2020,95.59,227.0,+,53.05,Active,1,LEO,USA,USA,Commercial,Communications,Falcon,1 45774U 20038AW  23266.28583962  .00004081  00000+0  29273-3 0  9990,2 45774  53.0542 269.7123 0001454  92.7093 267.4063 15.06397495181346,15.06397495,0.0001454,LEO
45775,STARLINK-1488,2020,94.64,227.0,P,53.05,Active,1,LEO,USA,USA,Commercial,Communications,Falcon,1 45775U 20038AX  23266.69135019  .00013240  00000+0  59332-3 0  9998,2 45775  53.0528 247.6904 0006384  51.1223 309.0341 15.21546388182666,15.21546388,0.0006384,LEO
45776,STARLINK-1489,2020,95.59,227.0,+,53.05,Active,1,LEO,USA,USA,Commercial,Communications,Falcon,1 45776U 20038AY  23266.42958838  .00005694  00000+0  40081-3 0  9997,2 45776  53.0524 269.0677 0001603  89.8689 270.2484 15.06405439181379,15.06405439,0.0001603,LEO
45777,STARLINK-1490,2020,94.82,227.0,P,53.05,Active,1,LEO,USA,USA,Commercial,Communications,Falcon,1 45777U 20038AZ  23266.39868459  .00010962  00000+0  53663-3 0  9997,2 45777  53.0540 259.1467 0004694  78.4306 281.7215 15.18673553181510,15.18673553,0.0004694,LEO
45778,STARLINK-1491,2020,95.59,227.0,+,53.05,Active,1,LEO,USA,USA,Commercial,Communications,Falcon,1 45778U 20038BA  23266.73917636  .00011862  00000+0  81300-3 0  9997,2 45778  53.0526 267.6806 0001449  90.3086 269.8069 15.06441425182523,15.06441425,0.0001449,LEO
45779,STARLINK-1492,2020,94.53,227.0,P,53.03,Active,1,LEO,USA,USA,Commercial,Communications,Falcon,1 45779U 20038BB  23266.25620069  .00022079  00000+0  92943-3 0  9993,2 45779  53.0329 243.0924 0003263  74.1017 286.0338 15.23313410181715,15.2331341,0.0003263,LEO
45780,STARLINK-1496,2020,95.59,227.0,+,53.05,Active,1,LEO,USA,USA,Commercial,Communications,Falcon,1 45780U 20038BC  23266.28214780  .00010341  00000+0  71190-3 0  9997,2 45780  53.0536 269.7282 0001361  86.6055 273.5089 15.06410870181337,15.0641087,0.0001361,LEO
45781,STARLINK-1497,2020,95.59,227.0,+,53.05,Active,1,LEO,USA,USA,Commercial,Communications,Falcon,1 45781U 20038BD  23266.24160140  .00003361  00000+0  24438-3 0  9991,2 45781  53.0536 269.9125 0001491  96.7710 263.3449 15.06404335181336,15.06404335,0.0001491,LEO
45782,STARLINK-1498,2020,94.51,227.0,P,53.05,Active,1,LEO,USA,USA,Commercial,Communications,Falcon,1 45782U 20038BE  23266.34782977  .00014248  00000+0  59791-3 0  9997,2 45782  53.0471 241.9871 0006523  44.1336 316.0180 15.23723474181756,15.23723474,0.0006523,LEO
45783,STARLINK-1505,2020,95.59,227.0,+,53.05,Active,1,LEO,USA,USA,Commercial,Communications,Falcon,1 45783U 20038BF  23266.30425599  .00009097  00000+0  62867-3 0  9992,2 45783  53.0542 269.6270 0001553  95.1592 264.9574 15.06409614181356,15.06409614,0.0001553,LEO
45784,STARLINK-1510,2020,95.59,227.0,+,53.05,Active,1,LEO,USA,USA,Commercial,Communications,Falcon,1 45784U 20038BG  23266.27846290  .00009356  00000+0  64606-3 0  9995,2 45784  53.0541 269.7425 0001569  91.4529 268.6639 15.06404260181349,15.0640426,0.0001569,LEO
45785,STARLINK-1512,2020,95.59,227.0,+,53.05,Active,1,LEO,USA,USA,Commercial,Communications,Falcon,1 45785U 20038BH  23266.39272146  .00010631  00000+0  73143-3 0  9996,2 45785  53.0539 269.2327 0001316 100.2382 259.8755 15.06404132181360,15.06404132,0.0001316,LEO
45786,STARLINK-1513,2020,95.59,227.0,+,53.05,Active,1,LEO,USA,USA,Commercial,Communications,Falcon,1 45786U 20038BJ  23266.24528902  .00005150  00000+0  36434-3 0  9997,2 45786  53.0536 269.8884 0001258  98.8111 261.3020 15.06405027181344,15.06405027,0.0001258,LEO
45787,STARLINK-1517,2020,95.59,227.0,+,53.05,Active,1,LEO,USA,USA,Commercial,Communications,Falcon,1 45787U 20038BK  23266.31901298  .00002900  00000+0  21350-3 0  9990,2 45787  53.0535 269.5645 0001386  96.5534 263.5613 15.06397862181352,15.06397862,0.0001386,LEO
45788,SKYSAT-C14,2020,93.12,100.0,+,52.98,Active,1,LEO,USA,USA,Commercial,Earth Observation,Falcon,1 45788U 20038BL  23266.24232158  .00031663  00000+0  63343-3 0  9991,2 45788  52.9807 248.5636 0009894 275.8687  84.1190 15.46470582186620,15.46470582,0.0009894,LEO
45789,SKYSAT-C16,2020,92.69,100.0,+,52.98,Active,1,LEO,USA,USA,Commercial,Earth Observation,Falcon,1 45789U 20038BM  23266.65708639  .00039150  00000+0  60932-3 0  9999,2 45789  52.9820 236.9094 0000896 357.1838   2.9165 15.53538821186810,15.53538821,8.96e-05,LEO
45790,SKYSAT-C15,2020,93.32,100.0,+,52.98,Active,1,LEO,USA,USA,Commercial,Earth Observation,Falcon,1 45790U 20038BN  23266.19820691  .00025111  00000+0  56622-3 0  9996,2 45790  52.9805 249.6602 0005739 294.0672  65.9731 15.43100809186590,15.43100809,0.0005739,LEO
